{
  "type": "FeatureCollection",
  "features": [
    {
      "type": "Feature",
      "properties": {
        "norad_id": 37836,
        "name": "EUTELSAT 16A",
        "group": "eutelsat",
        "lat": -0.051171910221286886,
        "lon": -155.8027016201306,
        "alt_km": 35771.03771852363,
        "timestamp": "2025-12-06T07:31:39.915730+00:00",
        "meta_object_name": "EUTELSAT 16A",
        "meta_object_id": "2011-057A",
        "meta_epoch": "2025-12-05T03:29:54.941856",
        "meta_mean_motion": 1.00268614,
        "meta_eccentricity": 0.0006388,
        "meta_inclination": 0.0588,
        "meta_ra_of_asc_node": 350.5573,
        "meta_arg_of_pericenter": 267.9402,
        "meta_mean_anomaly": 244.1961,
        "meta_ephemeris_type": 0,
        "meta_classification_type": "U",
        "meta_norad_cat_id": 37836,
        "meta_element_set_no": 999,
        "meta_rev_at_epoch": 538,
        "meta_bstar": 0,
        "meta_mean_motion_dot": 1.16e-06,
        "meta_mean_motion_ddot": 0,
        "tle_line1": "1 37836U 11057A   25339.14577479  .00000116  00000+0  00000+0 0  9993",
        "tle_line2": "2 37836   0.0588 350.5573 0006388 267.9402 244.1961  1.00268614  5384"
      },
      "geometry": {
        "type": "Point",
        "coordinates": [
          -155.8027016201306,
          -0.051171910221286886
        ]
      }
    },
    {
      "type": "Feature",
      "properties": {
        "norad_id": 38992,
        "name": "EUTELSAT 21B",
        "group": "eutelsat",
        "lat": -0.06388641832881829,
        "lon": -150.16614100506712,
        "alt_km": 35778.34976809504,
        "timestamp": "2025-12-06T07:31:39.915742+00:00",
        "meta_object_name": "EUTELSAT 21B",
        "meta_object_id": "2012-062B",
        "meta_epoch": "2025-12-05T02:54:38.908224",
        "meta_mean_motion": 1.0026923,
        "meta_eccentricity": 0.00031941,
        "meta_inclination": 0.067,
        "meta_ra_of_asc_node": 349.3096,
        "meta_arg_of_pericenter": 272.6983,
        "meta_mean_anomaly": 237.4481,
        "meta_ephemeris_type": 0,
        "meta_classification_type": "U",
        "meta_norad_cat_id": 38992,
        "meta_element_set_no": 999,
        "meta_rev_at_epoch": 4788,
        "meta_bstar": 0,
        "meta_mean_motion_dot": 1.42e-06,
        "meta_mean_motion_ddot": 0,
        "tle_line1": "1 38992U 12062B   25339.12128366  .00000142  00000+0  00000+0 0  9998",
        "tle_line2": "2 38992   0.0670 349.3096 0003194 272.6983 237.4481  1.00269230 47883"
      },
      "geometry": {
        "type": "Point",
        "coordinates": [
          -150.16614100506712,
          -0.06388641832881829
        ]
      }
    },
    {
      "type": "Feature",
      "properties": {
        "norad_id": 39020,
        "name": "EUTELSAT 70B",
        "group": "eutelsat",
        "lat": -0.08480398096119353,
        "lon": -101.22291906886248,
        "alt_km": 35768.464773775624,
        "timestamp": "2025-12-06T07:31:39.915754+00:00",
        "meta_object_name": "EUTELSAT 70B",
        "meta_object_id": "2012-069A",
        "meta_epoch": "2025-12-05T02:02:48.288768",
        "meta_mean_motion": 1.00271773,
        "meta_eccentricity": 0.00043113,
        "meta_inclination": 0.0634,
        "meta_ra_of_asc_node": 5.6214,
        "meta_arg_of_pericenter": 237.5147,
        "meta_mean_anomaly": 292.2141,
        "meta_ephemeris_type": 0,
        "meta_classification_type": "U",
        "meta_norad_cat_id": 39020,
        "meta_element_set_no": 999,
        "meta_rev_at_epoch": 4756,
        "meta_bstar": 0,
        "meta_mean_motion_dot": -3.1e-07,
        "meta_mean_motion_ddot": 0,
        "tle_line1": "1 39020U 12069A   25339.08528112 -.00000031  00000+0  00000+0 0  9994",
        "tle_line2": "2 39020   0.0634   5.6214 0004311 237.5147 292.2141  1.00271773 47566"
      },
      "geometry": {
        "type": "Point",
        "coordinates": [
          -101.22291906886248,
          -0.08480398096119353
        ]
      }
    },
    {
      "type": "Feature",
      "properties": {
        "norad_id": 39122,
        "name": "EUTELSAT 117 WEST A",
        "group": "eutelsat",
        "lat": 0.03935495455713879,
        "lon": 71.47033479252252,
        "alt_km": 35799.70437311614,
        "timestamp": "2025-12-06T07:31:39.915767+00:00",
        "meta_object_name": "EUTELSAT 117 WEST A",
        "meta_object_id": "2013-012A",
        "meta_epoch": "2025-12-05T06:17:38.868288",
        "meta_mean_motion": 1.0027047,
        "meta_eccentricity": 0.00031392,
        "meta_inclination": 0.0174,
        "meta_ra_of_asc_node": 318.7194,
        "meta_arg_of_pericenter": 294.2243,
        "meta_mean_anomaly": 159.0023,
        "meta_ephemeris_type": 0,
        "meta_classification_type": "U",
        "meta_norad_cat_id": 39122,
        "meta_element_set_no": 999,
        "meta_rev_at_epoch": 4648,
        "meta_bstar": 0,
        "meta_mean_motion_dot": -1e-08,
        "meta_mean_motion_ddot": 0,
        "tle_line1": "1 39122U 13012A   25339.26225542 -.00000001  00000+0  00000+0 0  9994",
        "tle_line2": "2 39122   0.0174 318.7194 0003139 294.2243 159.0023  1.00270470 46489"
      },
      "geometry": {
        "type": "Point",
        "coordinates": [
          71.47033479252252,
          0.03935495455713879
        ]
      }
    },
    {
      "type": "Feature",
      "properties": {
        "norad_id": 39163,
        "name": "EUTELSAT 7B",
        "group": "eutelsat",
        "lat": -0.027916645717966745,
        "lon": -164.7978665204207,
        "alt_km": 35794.48739944882,
        "timestamp": "2025-12-06T07:31:39.915794+00:00",
        "meta_object_name": "EUTELSAT 7B",
        "meta_object_id": "2013-022A",
        "meta_epoch": "2025-12-05T03:27:25.181280",
        "meta_mean_motion": 1.00269942,
        "meta_eccentricity": 0.00043428,
        "meta_inclination": 0.0681,
        "meta_ra_of_asc_node": 4.14,
        "meta_arg_of_pericenter": 307.2054,
        "meta_mean_anomaly": 181.7067,
        "meta_ephemeris_type": 0,
        "meta_classification_type": "U",
        "meta_norad_cat_id": 39163,
        "meta_element_set_no": 999,
        "meta_rev_at_epoch": 4601,
        "meta_bstar": 0,
        "meta_mean_motion_dot": 6e-07,
        "meta_mean_motion_ddot": 0,
        "tle_line1": "1 39163U 13022A   25339.14404145  .00000060  00000+0  00000+0 0  9999",
        "tle_line2": "2 39163   0.0681   4.1400 0004342 307.2054 181.7067  1.00269942 46016"
      },
      "geometry": {
        "type": "Point",
        "coordinates": [
          -164.7978665204207,
          -0.027916645717966745
        ]
      }
    },
    {
      "type": "Feature",
      "properties": {
        "norad_id": 39612,
        "name": "EXPRESS-AT1",
        "group": "eutelsat",
        "lat": -0.0346910258521588,
        "lon": -115.72895000687188,
        "alt_km": 35785.28900908288,
        "timestamp": "2025-12-06T07:31:39.915809+00:00",
        "meta_object_name": "EXPRESS-AT1",
        "meta_object_id": "2014-010A",
        "meta_epoch": "2025-12-05T01:58:41.183904",
        "meta_mean_motion": 1.00272499,
        "meta_eccentricity": 4.4e-05,
        "meta_inclination": 0.0166,
        "meta_ra_of_asc_node": 302.5758,
        "meta_arg_of_pericenter": 226.8234,
        "meta_mean_anomaly": 350.4172,
        "meta_ephemeris_type": 0,
        "meta_classification_type": "U",
        "meta_norad_cat_id": 39612,
        "meta_element_set_no": 999,
        "meta_rev_at_epoch": 4287,
        "meta_bstar": 0,
        "meta_mean_motion_dot": 9.1e-07,
        "meta_mean_motion_ddot": 0,
        "tle_line1": "1 39612U 14010A   25339.08242111  .00000091  00000+0  00000+0 0  9996",
        "tle_line2": "2 39612   0.0166 302.5758 0000440 226.8234 350.4172  1.00272499 42878"
      },
      "geometry": {
        "type": "Point",
        "coordinates": [
          -115.72895000687188,
          -0.0346910258521588
        ]
      }
    },
    {
      "type": "Feature",
      "properties": {
        "norad_id": 39613,
        "name": "EXPRESS-AT2",
        "group": "eutelsat",
        "lat": -0.013719286560644943,
        "lon": -31.883658624426317,
        "alt_km": 35781.20491495656,
        "timestamp": "2025-12-06T07:31:39.915821+00:00",
        "meta_object_name": "EXPRESS-AT2",
        "meta_object_id": "2014-010B",
        "meta_epoch": "2025-12-05T10:56:14.358336",
        "meta_mean_motion": 1.00269716,
        "meta_eccentricity": 0.0001548,
        "meta_inclination": 0.0195,
        "meta_ra_of_asc_node": 354.2354,
        "meta_arg_of_pericenter": 302.4165,
        "meta_mean_anomaly": 81.7726,
        "meta_ephemeris_type": 0,
        "meta_classification_type": "U",
        "meta_norad_cat_id": 39613,
        "meta_element_set_no": 999,
        "meta_rev_at_epoch": 4255,
        "meta_bstar": 0,
        "meta_mean_motion_dot": 0,
        "meta_mean_motion_ddot": 0,
        "tle_line1": "1 39613U 14010B   25339.45572174  .00000000  00000+0  00000+0 0  9993",
        "tle_line2": "2 39613   0.0195 354.2354 0001548 302.4165  81.7726  1.00269716 42553"
      },
      "geometry": {
        "type": "Point",
        "coordinates": [
          -31.883658624426317,
          -0.013719286560644943
        ]
      }
    }
  ]
}